#aV2006  1 28  0  0   .00000000      96 DD+AD WGS84 FIT  NGA
## 1359 518400.00000000   900.00000000 53763  .0000000000000
+   29     1  2  3  4  5  6  7  8  9 10 11 13 14 15 16 17 18
+         19 20 21 22 23 24 25 26 27 28 29 30  0  0  0  0  0
+          0  0  0  0  0  0  0  0  0  0  0  0  0  0  0  0  0
+          0  0  0  0  0  0  0  0  0  0  0  0  0  0  0  0  0
+          0  0  0  0  0  0  0  0  0  0  0  0  0  0  0  0  0
++         0  0  0  0  0  0  0  0  0  0  0  0  0  0  0  0  0
++         0  0  0  0  0  0  0  0  0  0  0  0  0  0  0  0  0
++         0  0  0  0  0  0  0  0  0  0  0  0  0  0  0  0  0
++         0  0  0  0  0  0  0  0  0  0  0  0  0  0  0  0  0
++         0  0  0  0  0  0  0  0  0  0  0  0  0  0  0  0  0
%c cc cc ccc ccc cccc cccc cccc cccc ccccc ccccc ccccc ccccc
%c cc cc ccc ccc cccc cccc cccc cccc ccccc ccccc ccccc ccccc
%f  0.0000000  0.000000000  0.00000000000  0.000000000000000
%f  0.0000000  0.000000000  0.00000000000  0.000000000000000
%i    0    0    0    0      0      0      0      0         0
%i    0    0    0    0      0      0      0      0         0
/*      NGA, ST. LOUIS,MO.                                  
/*   EPHEMERIS COMPUTED FROM  3 DAYS OF DATA                
/* CCCCCCCCCCCCCCCCCCCCCCCCCCCCCCCCCCCCCCCCCCCCCCCCCCCCCCCCC
/* CCCCCCCCCCCCCCCCCCCCCCCCCCCCCCCCCCCCCCCCCCCCCCCCCCCCCCCCC
*  2006  1 28 13 30   .00000000                                                 
P  1  18340.947277  10950.769179 -15612.582195     33.721652                    
V  1   8881.265602  18113.043515  22803.460646       .019488                    
P  2 -17202.922274   1510.826267 -20409.579934    -20.564298                    
V  2  10771.895121 -23012.721835 -11098.294953       .012707                    
P  3  19600.734535   4015.244226  17447.231285     70.285761                    
V  3  12005.624435  19117.493653 -17424.257956       .031199                    
P  4 -12049.128277  -9916.028210 -21497.680655    132.196811                    
V  4  13565.630091 -23682.673665   3677.172986       .116204                    
P  5 -15922.934611  13899.648653 -16177.092137    489.749695                    
V  5 -20460.102700    100.122873  20634.364699       .110394                    
P  6   3252.301718  22525.498219 -13434.993099    269.809592                    
V  6 -12259.866643 -12798.387000 -24167.969438       .385473                    
P  7 -19976.470661 -12629.251551 -12016.583756    482.567392                    
V  7  -6804.313564 -14526.427445  25629.382494       .091217                    
P  8  -5168.480636 -17283.417167  19202.534824    -54.879111                    
V  8  13617.304091 -20784.628913 -15315.496140      -.010351                    
P  9 -14828.157666  20737.143437   6349.351170      5.424296                    
V  9   1015.939305  -9295.173964  30503.261701       .016603                    
P 10 -26541.037424   2105.029599   2301.272843     77.761643                    
V 10  -3035.558096  -2018.092799 -31697.894732       .006136                    
P 11  13387.081524 -21796.134476   6615.547871    302.644183                    
V 11   1542.533046   9712.919594  28868.646274       .029253                    
P 13  -4307.149943 -23077.397073 -12552.830087     37.810039                    
V 13   9404.095934  12724.636452 -26718.039577       .023885                    
P 14  15954.930029  20905.329450  -3824.840426    -20.330333                    
V 14    900.873222   5238.408861  31760.045508       .005723                    
P 15   4119.793953  18136.970695  18647.077452    556.970630                    
V 15 -14250.253006  19598.361019 -16135.727180       .058622                    
P 16  26019.664829   2523.522569  -4872.812382     23.836876                    
V 16  -6181.545224   2851.552697 -30928.091644       .017207                    
P 17 -15484.809780 -21523.366956  -2199.882047     38.279118                    
V 17    859.288658  -3812.212505  31519.804553       .088678                    
P 18   1764.359601  15262.069931  21772.377643   -217.509625                    
V 18 -27411.397034    -24.789147   1962.111392      -.022136                    
P 19  12488.970217  -9004.885329  21738.461416    -22.814106                    
V 19  13446.681005  23853.456677   2195.658546       .007948                    
P 20  15915.268355 -12775.140655 -17063.543729    -34.112391                    
V 20  21588.298903    705.982979  19731.254438       .009563                    
P 21  -2942.738368  23065.654153  12397.615844       .326109                    
V 21 -10602.289673  12251.001095 -25894.995690       .035804                    
P 22  15921.423075  12438.366795  17399.378241     64.692518                    
V 22 -21812.280906   1480.413896  19078.667429       .025353                    
P 23   5818.302594 -16541.710661 -19990.261645    152.686765                    
V 23  14491.404386  20670.504054 -13090.895738      -.015274                    
P 24   -209.654315 -21142.151004 -15684.588567     80.982991                    
V 24  12266.368756 -16507.110577  21991.265978       .030263                    
P 25  14119.349571   5648.849141 -21375.730571   -229.867189                    
V 25 -10755.908836  25991.424655   -130.768653       .907398                    
P 26 -14718.193686   3104.664473  21593.084672    -25.237307                    
V 26 -14392.716317 -24182.071728  -5659.662942      -.081253                    
P 27    935.986000 -23536.623941  12492.120998     33.424003                    
V 27   8488.350861 -12720.614335 -26197.833607       .015656                    
P 28 -13200.061953 -13188.858263  19296.280133     34.369906                    
V 28  23794.582280  -1668.600423  15005.740376      -.006067                    
P 29 -16801.919538   -464.236620  20878.040469    514.637638                    
V 29 -13592.440780 -21946.516732 -11325.356044       .131127                    
P 30  -5894.963178  15618.759559 -20910.199442     20.388787                    
V 30 -26004.648807   1077.777794   8358.769006       .036348                    
EOF
